STARLINK-1329           
1 45531U 20025A   26187.30652734  .00085485  00000+0  50433-3 0  9998
2 45531  53.0389 215.6205 0003737   2.4434 357.6604 15.77456379344079
STARLINK-1338           
1 45532U 20025B   26186.83361294  .00074393  00000+0  50609-3 0  9995
2 45532  53.0408 225.4777 0002745  52.3060 307.8207 15.74260120343891
STARLINK-1350           
1 45535U 20025E   26187.28661916  .00027923  00000+0  70423-3 0  9995
2 45535  53.0698 194.9186 0001878  51.3507 308.7665 15.39672753344406
STARLINK-1362           
1 45538U 20025H   26187.25174620  .00064655  00000+0  15922-2 0  9991
2 45538  53.1547 266.5615 0004506 317.4163  42.6492 15.40000695343381
STARLINK-1368           
1 45540U 20025K   26186.93774510  .00038577  00000+0  95040-3 0  9996
2 45540  53.1561 268.3784 0003004 318.1692  41.9083 15.40224350343322
STARLINK-1371           
1 45542U 20025M   26187.12836285  .00062119  00000+0  48032-3 0  9996
2 45542  53.0401 234.4885 0002287  43.4940 316.6257 15.71321699343792
STARLINK-1372           
1 45543U 20025N   26187.21255584  .00022607  00000+0  55351-3 0  9994
2 45543  53.1554 266.4887 0003283 310.5455  49.5264 15.40697458342475
STARLINK-1373           
1 45544U 20025P   26186.84751318  .00062776  00000+0  45082-3 0  9990
2 45544  53.0421 230.6019 0002855  47.2760 312.8498 15.73064479343827
STARLINK-1327           
1 45555U 20025AA  26187.27591382  .00074031  00000+0  48906-3 0  9998
2 45555  53.0385 205.6792 0002524  64.2854 295.8425 15.74941146344203
STARLINK-1356           
1 45564U 20025AK  26187.25633268  .00048722  00000+0  43854-3 0  9991
2 45564  53.0398 219.9295 0004365  28.3266 331.7986 15.67734729344005
STARLINK-1357           
1 45565U 20025AL  26187.20348420  .00070455  00000+0  50817-3 0  9995
2 45565  53.0421 175.9393 0001314 187.9599 172.1398 15.72919010344621
STARLINK-1361           
1 45567U 20025AN  26187.22958575  .00059768  00000+0  46083-3 0  9991
2 45567  53.0398 218.0996 0002598  59.8719 300.2555 15.71404693344039
STARLINK-1376           
1 45570U 20025AR  26186.85762966  .00037751  00000+0  90674-3 0  9993
2 45570  53.1544 244.4832 0001925 324.6759  35.4118 15.41006208343655
STARLINK-1320           
1 45572U 20025AT  26187.33337963  .00246466  35917-4  52284-3 0  9994
2 45572  53.0346 109.9713 0004700  85.4005  10.5596 15.98291190  5779
STARLINK-1321           
1 45573U 20025AU  26187.29321041  .00068544  00000+0  51588-3 0  9995
2 45573  53.0383 201.5699 0001552  66.9363 293.1818 15.71925356343967
STARLINK-1331           
1 45578U 20025AZ  26187.25681213  .00059656  00000+0  45563-3 0  9996
2 45578  53.0438 208.7119 0001968  60.2293 299.8920 15.71632541344171
STARLINK-1333           
1 45580U 20025BB  26186.89606223  .00036249  00000+0  96197-3 0  9998
2 45580  53.1550 246.4254 0003533 338.4974  21.5881 15.37975694343632
STARLINK-1335           
1 45581U 20025BC  26187.15405832  .00026878  00000+0  67751-3 0  9993
2 45581  53.1523 241.5802 0002893 302.5507  57.5218 15.39710000343712
STARLINK-1337           
1 45582U 20025BD  26187.21477715  .00090404  00000+0  49769-3 0  9995
2 45582  53.0415 196.4557 0001883  84.9371 275.1864 15.78985624344327
STARLINK-1347           
1 45586U 20025BH  26187.19490620  .00067049  00000+0  50647-3 0  9992
2 45586  53.0360 168.3733 0001462  63.6915 296.4252 15.71848052344711
STARLINK-1364           
1 45589U 20025BL  26187.25189115  .00064624  00000+0  47244-3 0  9991
2 45589  53.0401 204.6384 0004336  30.1073 330.0194 15.72627374344211
STARLINK-1365           
1 45590U 20025BM  26187.17856318  .00052340  00000+0  46697-3 0  9993
2 45590  53.0420 240.5681 0002035  34.0102 326.1044 15.67928566343729
STARLINK-1443           
1 45660U 20035D   26186.35806559  .00047215  00000+0  13837-2 0  9997
2 45660  53.1301 238.1559 0002240  18.9993 341.1093 15.34761595336779
STARLINK-1446           
1 45663U 20035G   26187.18673074  .00025707  00000+0  46765-3 0  9995
2 45663  53.0202 153.9261 0002150   2.7870 357.3149 15.49371799338008
STARLINK-1448           
1 45665U 20035J   26187.25345628  .00086380  00000+0  53660-3 0  9992
2 45665  53.0393 191.6943 0002307  75.1622 284.9653 15.76289300337471
AEHF-6 (USA 298)        
1 45465U 20022B   26187.24551954 -.00000283  00000+0  00000+0 0  9991
2 45465   2.5084 301.3577 0041955  15.8663 193.1082  1.00275423 23209
