OBJECT_NAME,OBJECT_ID,EPOCH,MEAN_MOTION,ECCENTRICITY,INCLINATION,RA_OF_ASC_NODE,ARG_OF_PERICENTER,MEAN_ANOMALY,EPHEMERIS_TYPE,CLASSIFICATION_TYPE,NORAD_CAT_ID,ELEMENT_SET_NO,REV_AT_EPOCH,BSTAR,MEAN_MOTION_DOT,MEAN_MOTION_DDOT
AEHF-6 (USA 298),2020-022B,2026-07-06T05:53:32.888256,1.00275423,.00419552,2.5084,301.3577,15.8663,193.1082,0,U,45465,999,2320,0,-.283E-5,0
STARLINK-1329,2020-025A,2026-07-06T07:21:23.962176,15.77456379,.00037375,53.0389,215.6205,2.4434,357.6604,0,U,45531,999,34407,.50432749E-3,.85485E-3,0
STARLINK-1338,2020-025B,2026-07-05T20:00:24.158016,15.74260120,.00027455,53.0408,225.4777,52.3060,307.8207,0,U,45532,999,34389,.50608719E-3,.74393E-3,0
STARLINK-1350,2020-025E,2026-07-06T06:52:43.895424,15.39672753,.00018782,53.0698,194.9186,51.3507,308.7665,0,U,45535,999,34440,.70422969E-3,.27923E-3,0
STARLINK-1362,2020-025H,2026-07-06T06:02:30.871680,15.40000695,.00045067,53.1547,266.5615,317.4163,42.6492,0,U,45538,999,34338,.15922401E-2,.64655E-3,0
STARLINK-1368,2020-025K,2026-07-05T22:30:21.176640,15.40224350,.00030042,53.1561,268.3784,318.1692,41.9083,0,U,45540,999,34332,.95039567E-3,.38577E-3,0
STARLINK-1371,2020-025M,2026-07-06T03:04:50.550240,15.71321699,.00022878,53.0401,234.4885,43.4940,316.6257,0,U,45542,999,34379,.48032372E-3,.62119E-3,0
STARLINK-1372,2020-025N,2026-07-06T05:06:04.824576,15.40697458,.00032831,53.1554,266.4887,310.5455,49.5264,0,U,45543,999,34247,.55350505E-3,.22607E-3,0
STARLINK-1373,2020-025P,2026-07-05T20:20:25.138752,15.73064479,.00028556,53.0421,230.6019,47.2760,312.8498,0,U,45544,999,34382,.45082417E-3,.62776E-3,0
STARLINK-1327,2020-025AA,2026-07-06T06:37:18.954048,15.74941146,.00025241,53.0385,205.6792,64.2854,295.8425,0,U,45555,999,34420,.48906487E-3,.74031E-3,0
STARLINK-1356,2020-025AK,2026-07-06T06:09:07.143552,15.67734729,.00043655,53.0398,219.9295,28.3266,331.7986,0,U,45564,999,34400,.43853705E-3,.48722E-3,0
STARLINK-1357,2020-025AL,2026-07-06T04:53:01.034880,15.72919010,.00013149,53.0421,175.9393,187.9599,172.1398,0,U,45565,999,34462,.50816799E-3,.70455E-3,0
STARLINK-1361,2020-025AN,2026-07-06T05:30:36.208800,15.71404693,.00025983,53.0398,218.0996,59.8719,300.2555,0,U,45567,999,34403,.46082689E-3,.59768E-3,0
STARLINK-1376,2020-025AR,2026-07-05T20:34:59.202624,15.41006208,.00019254,53.1544,244.4832,324.6759,35.4118,0,U,45570,999,34365,.90673989E-3,.37751E-3,0
STARLINK-1320,2020-025AT,2026-07-06T08:00:04.000032,15.98291190,.00047007,53.0346,109.9713,85.4005,10.5596,0,U,45572,999,577,.52284211E-3,.246466E-2,.3591667E-4
STARLINK-1321,2020-025AU,2026-07-06T07:02:13.379424,15.71925356,.00015527,53.0383,201.5699,66.9363,293.1818,0,U,45573,999,34396,.51587502E-3,.68544E-3,0
STARLINK-1331,2020-025AZ,2026-07-06T06:09:48.568032,15.71632541,.00019681,53.0438,208.7119,60.2293,299.8920,0,U,45578,999,34417,.45562917E-3,.59656E-3,0
STARLINK-1333,2020-025BB,2026-07-05T21:30:19.776672,15.37975694,.00035336,53.1550,246.4254,338.4974,21.5881,0,U,45580,999,34363,.9619708E-3,.36249E-3,0
STARLINK-1335,2020-025BC,2026-07-06T03:41:50.638848,15.39710000,.00028937,53.1523,241.5802,302.5507,57.5218,0,U,45581,999,34371,.67751051E-3,.26878E-3,0
STARLINK-1337,2020-025BD,2026-07-06T05:09:16.745760,15.78985624,.00018832,53.0415,196.4557,84.9371,275.1864,0,U,45582,999,34432,.49768705E-3,.90404E-3,0
STARLINK-1347,2020-025BH,2026-07-06T04:40:39.895680,15.71848052,.00014627,53.0360,168.3733,63.6915,296.4252,0,U,45586,999,34471,.50646587E-3,.67049E-3,0
STARLINK-1364,2020-025BL,2026-07-06T06:02:43.395360,15.72627374,.00043364,53.0401,204.6384,30.1073,330.0194,0,U,45589,999,34421,.47244382E-3,.64624E-3,0
STARLINK-1365,2020-025BM,2026-07-06T04:17:07.858752,15.67928566,.00020351,53.0420,240.5681,34.0102,326.1044,0,U,45590,999,34372,.46696564E-3,.5234E-3,0
STARLINK-1443,2020-035D,2026-07-05T08:35:36.866976,15.34761595,.00022409,53.1301,238.1559,18.9993,341.1093,0,U,45660,999,33677,.13837248E-2,.47215E-3,0
STARLINK-1446,2020-035G,2026-07-06T04:28:53.535936,15.49371799,.00021502,53.0202,153.9261,2.7870,357.3149,0,U,45663,999,33800,.46765312E-3,.25707E-3,0
STARLINK-1448,2020-035J,2026-07-06T06:04:58.622592,15.76289300,.00023076,53.0393,191.6943,75.1622,284.9653,0,U,45665,999,33747,.53659794E-3,.8638E-3,0
